{
  "type": "FeatureCollection",
  "features": [
    {
      "type": "Feature",
      "properties": {
        "norad_id": 36710,
        "name": "FENGYUN 1C DEB",
        "group": "fengyun-1c-debris",
        "lat": -51.06688808893127,
        "lon": 47.29379158841516,
        "alt_km": 745.880548234637,
        "timestamp": "2025-12-05T14:45:15.587670+00:00",
        "meta_object_name": "FENGYUN 1C DEB",
        "meta_object_id": "1999-025EAG",
        "meta_epoch": "2025-12-01T21:32:31.905600",
        "meta_mean_motion": 14.49639055,
        "meta_eccentricity": 0.0067671,
        "meta_inclination": 98.3816,
        "meta_ra_of_asc_node": 33.083,
        "meta_arg_of_pericenter": 214.3646,
        "meta_mean_anomaly": 145.3162,
        "meta_ephemeris_type": 0,
        "meta_classification_type": "U",
        "meta_norad_cat_id": 36710,
        "meta_element_set_no": 999,
        "meta_rev_at_epoch": 64796,
        "meta_bstar": 0.0017482882,
        "meta_mean_motion_dot": 6.877e-05,
        "meta_mean_motion_ddot": 0,
        "tle_line1": "1 36710U 99025EAG 25335.89759150  .00006877  00000+0  17483-2 0  9996",
        "tle_line2": "2 36710  98.3816  33.0830 0067671 214.3646 145.3162 14.49639055647964"
      },
      "geometry": {
        "type": "Point",
        "coordinates": [
          47.29379158841516,
          -51.06688808893127
        ]
      }
    },
    {
      "type": "Feature",
      "properties": {
        "norad_id": 36711,
        "name": "FENGYUN 1C DEB",
        "group": "fengyun-1c-debris",
        "lat": 12.488745827880974,
        "lon": -5.400016823842562,
        "alt_km": 810.4784604067772,
        "timestamp": "2025-12-05T14:45:15.587680+00:00",
        "meta_object_name": "FENGYUN 1C DEB",
        "meta_object_id": "1999-025EAH",
        "meta_epoch": "2025-11-29T18:49:32.545344",
        "meta_mean_motion": 14.42080972,
        "meta_eccentricity": 0.01000486,
        "meta_inclination": 100.8061,
        "meta_ra_of_asc_node": 349.6584,
        "meta_arg_of_pericenter": 244.1532,
        "meta_mean_anomaly": 114.9305,
        "meta_ephemeris_type": 0,
        "meta_classification_type": "U",
        "meta_norad_cat_id": 36711,
        "meta_element_set_no": 999,
        "meta_rev_at_epoch": 64124,
        "meta_bstar": 0.0024295961,
        "meta_mean_motion_dot": 8.419e-05,
        "meta_mean_motion_ddot": 0,
        "tle_line1": "1 36711U 99025EAH 25333.78440446  .00008419  00000+0  24296-2 0  9992",
        "tle_line2": "2 36711 100.8061 349.6584 0100048 244.1532 114.9305 14.42080972641246"
      },
      "geometry": {
        "type": "Point",
        "coordinates": [
          -5.400016823842562,
          12.488745827880974
        ]
      }
    },
    {
      "type": "Feature",
      "properties": {
        "norad_id": 36716,
        "name": "FENGYUN 1C DEB",
        "group": "fengyun-1c-debris",
        "lat": -2.1725379721345206,
        "lon": -100.90967821487526,
        "alt_km": 972.4950363350399,
        "timestamp": "2025-12-05T14:45:15.587690+00:00",
        "meta_object_name": "FENGYUN 1C DEB",
        "meta_object_id": "1999-025EAN",
        "meta_epoch": "2025-12-04T12:49:18.837984",
        "meta_mean_motion": 13.88406151,
        "meta_eccentricity": 0.0148016,
        "meta_inclination": 99.2275,
        "meta_ra_of_asc_node": 257.6681,
        "meta_arg_of_pericenter": 251.0772,
        "meta_mean_anomaly": 107.4291,
        "meta_ephemeris_type": 0,
        "meta_classification_type": "U",
        "meta_norad_cat_id": 36716,
        "meta_element_set_no": 999,
        "meta_rev_at_epoch": 62817,
        "meta_bstar": 0.00042624,
        "meta_mean_motion_dot": 5.12e-06,
        "meta_mean_motion_ddot": 0,
        "tle_line1": "1 36716U 99025EAN 25338.53424581  .00000512  00000+0  42624-3 0  9999",
        "tle_line2": "2 36716  99.2275 257.6681 0148016 251.0772 107.4291 13.88406151628173"
      },
      "geometry": {
        "type": "Point",
        "coordinates": [
          -100.90967821487526,
          -2.1725379721345206
        ]
      }
    },
    {
      "type": "Feature",
      "properties": {
        "norad_id": 36724,
        "name": "FENGYUN 1C DEB",
        "group": "fengyun-1c-debris",
        "lat": 0.8735698684235745,
        "lon": 10.642913066642539,
        "alt_km": 870.1708060841665,
        "timestamp": "2025-12-05T14:45:15.587700+00:00",
        "meta_object_name": "FENGYUN 1C DEB",
        "meta_object_id": "1999-025EAW",
        "meta_epoch": "2025-12-02T00:57:35.994816",
        "meta_mean_motion": 14.25124364,
        "meta_eccentricity": 0.01035854,
        "meta_inclination": 99.4708,
        "meta_ra_of_asc_node": 6.9331,
        "meta_arg_of_pericenter": 227.7842,
        "meta_mean_anomaly": 162.27,
        "meta_ephemeris_type": 0,
        "meta_classification_type": "U",
        "meta_norad_cat_id": 36724,
        "meta_element_set_no": 999,
        "meta_rev_at_epoch": 57320,
        "meta_bstar": 0.0021080641,
        "meta_mean_motion_dot": 5.184e-05,
        "meta_mean_motion_ddot": 0,
        "tle_line1": "1 36724U 99025EAW 25336.03999994  .00005184  00000+0  21081-2 0  9999",
        "tle_line2": "2 36724  99.4708   6.9331 0103585 227.7842 162.2700 14.25124364573204"
      },
      "geometry": {
        "type": "Point",
        "coordinates": [
          10.642913066642539,
          0.8735698684235745
        ]
      }
    },
    {
      "type": "Feature",
      "properties": {
        "norad_id": 36729,
        "name": "FENGYUN 1C DEB",
        "group": "fengyun-1c-debris",
        "lat": 74.92533777617075,
        "lon": -73.03129315838808,
        "alt_km": 882.2274829223925,
        "timestamp": "2025-12-05T14:45:15.587710+00:00",
        "meta_object_name": "FENGYUN 1C DEB",
        "meta_object_id": "1999-025EBB",
        "meta_epoch": "2025-12-03T04:29:37.222368",
        "meta_mean_motion": 14.10300692,
        "meta_eccentricity": 0.00454632,
        "meta_inclination": 98.7067,
        "meta_ra_of_asc_node": 319.2938,
        "meta_arg_of_pericenter": 283.7878,
        "meta_mean_anomaly": 75.8236,
        "meta_ephemeris_type": 0,
        "meta_classification_type": "U",
        "meta_norad_cat_id": 36729,
        "meta_element_set_no": 999,
        "meta_rev_at_epoch": 87117,
        "meta_bstar": 0.00037904944,
        "meta_mean_motion_dot": 6.36e-06,
        "meta_mean_motion_ddot": 0,
        "tle_line1": "1 36729U 99025EBB 25337.18723637  .00000636  00000+0  37905-3 0  9990",
        "tle_line2": "2 36729  98.7067 319.2938 0045463 283.7878  75.8236 14.10300692871177"
      },
      "geometry": {
        "type": "Point",
        "coordinates": [
          -73.03129315838808,
          74.92533777617075
        ]
      }
    },
    {
      "type": "Feature",
      "properties": {
        "norad_id": 36734,
        "name": "FENGYUN 1C DEB",
        "group": "fengyun-1c-debris",
        "lat": 19.88381930924338,
        "lon": -150.41589190213938,
        "alt_km": 801.1294913902402,
        "timestamp": "2025-12-05T14:45:15.587720+00:00",
        "meta_object_name": "FENGYUN 1C DEB",
        "meta_object_id": "1999-025EBG",
        "meta_epoch": "2025-12-02T01:47:23.275680",
        "meta_mean_motion": 14.25724039,
        "meta_eccentricity": 0.00354571,
        "meta_inclination": 99.0569,
        "meta_ra_of_asc_node": 22.6212,
        "meta_arg_of_pericenter": 249.1772,
        "meta_mean_anomaly": 110.5608,
        "meta_ephemeris_type": 0,
        "meta_classification_type": "U",
        "meta_norad_cat_id": 36734,
        "meta_element_set_no": 999,
        "meta_rev_at_epoch": 82582,
        "meta_bstar": 0.0018421296,
        "meta_mean_motion_dot": 4.356e-05,
        "meta_mean_motion_ddot": 0,
        "tle_line1": "1 36734U 99025EBG 25336.07457495  .00004356  00000+0  18421-2 0  9993",
        "tle_line2": "2 36734  99.0569  22.6212 0035457 249.1772 110.5608 14.25724039825827"
      },
      "geometry": {
        "type": "Point",
        "coordinates": [
          -150.41589190213938,
          19.88381930924338
        ]
      }
    },
    {
      "type": "Feature",
      "properties": {
        "norad_id": 36736,
        "name": "FENGYUN 1C DEB",
        "group": "fengyun-1c-debris",
        "lat": -81.18690049096422,
        "lon": 142.85671606929208,
        "alt_km": 829.2782226594763,
        "timestamp": "2025-12-05T14:45:15.587730+00:00",
        "meta_object_name": "FENGYUN 1C DEB",
        "meta_object_id": "1999-025EBJ",
        "meta_epoch": "2025-12-04T10:32:23.233056",
        "meta_mean_motion": 14.25365583,
        "meta_eccentricity": 0.006147,
        "meta_inclination": 98.8075,
        "meta_ra_of_asc_node": 51.8674,
        "meta_arg_of_pericenter": 163.5738,
        "meta_mean_anomaly": 196.7452,
        "meta_ephemeris_type": 0,
        "meta_classification_type": "U",
        "meta_norad_cat_id": 36736,
        "meta_element_set_no": 999,
        "meta_rev_at_epoch": 88497,
        "meta_bstar": 0.0039834,
        "meta_mean_motion_dot": 9.544e-05,
        "meta_mean_motion_ddot": 0,
        "tle_line1": "1 36736U 99025EBJ 25338.43915779  .00009544  00000+0  39834-2 0  9996",
        "tle_line2": "2 36736  98.8075  51.8674 0061470 163.5738 196.7452 14.25365583884978"
      },
      "geometry": {
        "type": "Point",
        "coordinates": [
          142.85671606929208,
          -81.18690049096422
        ]
      }
    }
  ]
}